[
    {
        "CCSDS_OMM_VERS": "3.0",
        "COMMENT": "GENERATED VIA SPACE-TRACK.ORG API",
        "CREATION_DATE": "2025-05-02T17:35:09",
        "ORIGINATOR": "18 SPCS",
        "OBJECT_NAME": "GALILEO 26 (2C2)",
        "OBJECT_ID": "2018-060B",
        "CENTER_NAME": "EARTH",
        "REF_FRAME": "TEME",
        "TIME_SYSTEM": "UTC",
        "MEAN_ELEMENT_THEORY": "SGP4",
        "EPOCH": "2025-05-02T02:06:38.580192",
        "MEAN_MOTION": "1.70475100",
        "ECCENTRICITY": "0.00054230",
        "INCLINATION": "57.2757",
        "RA_OF_ASC_NODE": "352.8779",
        "ARG_OF_PERICENTER": "271.1414",
        "MEAN_ANOMALY": "88.8372",
        "EPHEMERIS_TYPE": "0",
        "CLASSIFICATION_TYPE": "U",
        "NORAD_CAT_ID": "43565",
        "ELEMENT_SET_NO": "999",
        "REV_AT_EPOCH": "4220",
        "BSTAR": "0.00000000000000",
        "MEAN_MOTION_DOT": "-0.00000098",
        "MEAN_MOTION_DDOT": "0.0000000000000",
        "SEMIMAJOR_AXIS": "29600.193",
        "PERIOD": "844.698",
        "APOAPSIS": "23238.110",
        "PERIAPSIS": "23206.006",
        "OBJECT_TYPE": "PAYLOAD",
        "RCS_SIZE": "LARGE",
        "COUNTRY_CODE": "ESA",
        "LAUNCH_DATE": "2018-07-25",
        "SITE": "FRGUI",
        "DECAY_DATE": null,
        "FILE": "4716995",
        "GP_ID": "286680143",
        "TLE_LINE0": "0 GALILEO 26 (2C2)",
        "TLE_LINE1": "1 43565U 18060B   25122.08794653 -.00000098  00000-0  00000-0 0  9990",
        "TLE_LINE2": "2 43565  57.2757 352.8779 0005423 271.1414  88.8372  1.70475100 42202"
    }
]